{
    "links": {
        "self": "http://www.neowsapp.com/rest/v1/neo/3715537?api_key=iIulBulltgU6a56xZRHN4H3l9WmuAYTsLGpBGhQ2"
    },
    "id": "3715537",
    "neo_reference_id": "3715537",
    "name": "(2015 GA6)",
    "designation": "2015 GA6",
    "nasa_jpl_url": "http://ssd.jpl.nasa.gov/sbdb.cgi?sstr=3715537",
    "absolute_magnitude_h": 25.4,
    "estimated_diameter": {
        "kilometers": {
            "estimated_diameter_min": 0.022108281,
            "estimated_diameter_max": 0.0494356193
        },
        "meters": {
            "estimated_diameter_min": 22.1082810359,
            "estimated_diameter_max": 49.435619262
        },
        "miles": {
            "estimated_diameter_min": 0.0137374447,
            "estimated_diameter_max": 0.0307178602
        },
        "feet": {
            "estimated_diameter_min": 72.5337327539,
            "estimated_diameter_max": 162.1903570994
        }
    },
    "is_potentially_hazardous_asteroid": false,
    "close_approach_data": [
        {
            "close_approach_date": "2015-04-09",
            "close_approach_date_full": "2015-Apr-09 08:00",
            "epoch_date_close_approach": 1428566400000,
            "relative_velocity": {
                "kilometers_per_second": "7.1320384598",
                "kilometers_per_hour": "25675.3384552811",
                "miles_per_hour": "15953.6568307273"
            },
            "miss_distance": {
                "astronomical": "0.0574624407",
                "lunar": "22.3528894323",
                "kilometers": "8596258.733721309",
                "miles": "5341467.4899957042"
            },
            "orbiting_body": "Earth"
        },
        {
            "close_approach_date": "2147-03-03",
            "close_approach_date_full": "2147-Mar-03 07:19",
            "epoch_date_close_approach": 5590883940000,
            "relative_velocity": {
                "kilometers_per_second": "12.5751153726",
                "kilometers_per_hour": "45270.4153415033",
                "miles_per_hour": "28129.275577058"
            },
            "miss_distance": {
                "astronomical": "0.259991949",
                "lunar": "101.136868161",
                "kilometers": "38894241.78754863",
                "miles": "24167761.172805894"
            },
            "orbiting_body": "Earth"
        }
    ],
    "orbital_data": {
        "orbit_id": "8",
        "orbit_determination_date": "2017-04-06 08:34:29",
        "first_observation_date": "2015-04-11",
        "last_observation_date": "2015-04-28",
        "data_arc_in_days": 17,
        "observations_used": 39,
        "orbit_uncertainty": "8",
        "minimum_orbit_intersection": ".0574167",
        "jupiter_tisserand_invariant": "3.657",
        "epoch_osculation": "2457127.5",
        "eccentricity": ".4802005577193276",
        "semi_major_axis": "2.021952771646051",
        "inclination": "7.842206046723475",
        "ascending_node_longitude": "206.2732356845179",
        "orbital_period": "1050.158707424838",
        "perihelion_distance": "1.051009923019477",
        "perihelion_argument": "342.8496803747823",
        "aphelion_distance": "2.992895620272625",
        "perihelion_time": "2457112.989539875939",
        "mean_anomaly": "4.974263040175605",
        "mean_motion": ".3428053278563762",
        "equinox": "J2000",
        "orbit_class": {
            "orbit_class_type": "AMO",
            "orbit_class_description": "Near-Earth asteroid orbits similar to that of 1221 Amor",
            "orbit_class_range": "1.017 AU < q (perihelion) < 1.3 AU"
        }
    },
    "is_sentry_object": false
}